[{"OBJECT_NAME":"ICEYE-X62","OBJECT_ID":"2025-276CT","EPOCH":"2026-03-09T22:00:01.999584","MEAN_MOTION":15.13749858,"ECCENTRICITY":0.00024067,"INCLINATION":97.4268,"RA_OF_ASC_NODE":144.1131,"ARG_OF_PERICENTER":24.3407,"MEAN_ANOMALY":42.0964,"EPHEMERIS_TYPE":0,"CLASSIFICATION_TYPE":"U","NORAD_CAT_ID":66755,"ELEMENT_SET_NO":999,"REV_AT_EPOCH":582,"BSTAR":-0.0014397534,"MEAN_MOTION_DOT":-0.00025905,"MEAN_MOTION_DDOT":0},{"OBJECT_NAME":"TITAN 4B R\/B","OBJECT_ID":"2000-047B","EPOCH":"2026-03-09T21:29:16.286496","MEAN_MOTION":15.09565128,"ECCENTRICITY":0.00386241,"INCLINATION":67.9901,"RA_OF_ASC_NODE":39.932,"ARG_OF_PERICENTER":35.1583,"MEAN_ANOMALY":325.2103,"EPHEMERIS_TYPE":0,"CLASSIFICATION_TYPE":"U","NORAD_CAT_ID":26474,"ELEMENT_SET_NO":999,"REV_AT_EPOCH":39294,"BSTAR":0.00034805691,"MEAN_MOTION_DOT":5.567e-5,"MEAN_MOTION_DDOT":0}]
